{
  "norad_id": 49219,
  "name": "ONEWEB-0357",
  "history": [
    {
      "epoch": "2026-04-10T06:02:37.148640Z",
      "apogee_km": 1183.1451204427558,
      "perigee_km": 1180.3981520406915,
      "latitude_deg": -6.89168358810527e-06,
      "longitude_deg": -1.1486207242539215,
      "height_km": 1184.589545906347,
      "semi_major_axis_km": 7559.908636241723,
      "eccentricity": 0.00018168,
      "inclination_deg": 87.9139,
      "raan_deg": 287.9945,
      "arg_perigee_deg": 86.5703,
      "mean_anomaly_deg": 273.5638,
      "mean_motion_rev_day": 13.20772268
    },
    {
      "epoch": "2026-04-11T18:24:24.778080Z",
      "apogee_km": 1183.1732359716361,
      "perigee_km": 1180.3685101507317,
      "latitude_deg": 4.210896242657903e-05,
      "longitude_deg": 171.60603726567894,
      "height_km": 1184.604052652319,
      "semi_major_axis_km": 7559.907873061184,
      "eccentricity": 0.0001855,
      "inclination_deg": 87.9139,
      "raan_deg": 287.691,
      "arg_perigee_deg": 87.2688,
      "mean_anomaly_deg": 272.8658,
      "mean_motion_rev_day": 13.20772468
    },
    {
      "epoch": "2026-04-12T23:29:50.853984Z",
      "apogee_km": 1183.1734654212314,
      "perigee_km": 1180.3664719637563,
      "latitude_deg": 2.3770655967974615e-05,
      "longitude_deg": 93.81097860855253,
      "height_km": 1184.6045639508968,
      "semi_major_axis_km": 7559.906968692494,
      "eccentricity": 0.00018565,
      "inclination_deg": 87.9137,
      "raan_deg": 287.4493,
      "arg_perigee_deg": 87.3289,
      "mean_anomaly_deg": 272.8057,
      "mean_motion_rev_day": 13.20772705
    },
    {
      "epoch": "2026-04-14T19:07:59.910816Z",
      "apogee_km": 1183.1511639999399,
      "perigee_km": 1180.3872622884146,
      "latitude_deg": 4.918982299694992e-05,
      "longitude_deg": 157.1177838657981,
      "height_km": 1184.6060730335296,
      "semi_major_axis_km": 7559.906213144177,
      "eccentricity": 0.0001828,
      "inclination_deg": 87.9139,
      "raan_deg": 287.0859,
      "arg_perigee_deg": 87.3792,
      "mean_anomaly_deg": 272.7551,
      "mean_motion_rev_day": 13.20772903
    },
    {
      "epoch": "2026-04-15T20:35:15.260928Z",
      "apogee_km": 1183.1502512244715,
      "perigee_km": 1180.3893732566412,
      "latitude_deg": -2.862814430473121e-05,
      "longitude_deg": 134.04635479532578,
      "height_km": 1184.607205920882,
      "semi_major_axis_km": 7559.906812240556,
      "eccentricity": 0.0001826,
      "inclination_deg": 87.9138,
      "raan_deg": 286.8738,
      "arg_perigee_deg": 87.3979,
      "mean_anomaly_deg": 272.7363,
      "mean_motion_rev_day": 13.20772746
    },
    {
      "epoch": "2026-04-16T18:24:19.863648Z",
      "apogee_km": 1183.1520071640043,
      "perigee_km": 1180.3896168494966,
      "latitude_deg": 6.19409131651009e-05,
      "longitude_deg": 165.6994506419747,
      "height_km": 1184.6060367333564,
      "semi_major_axis_km": 7559.90781200675,
      "eccentricity": 0.0001827,
      "inclination_deg": 87.9139,
      "raan_deg": 286.6921,
      "arg_perigee_deg": 87.3099,
      "mean_anomaly_deg": 272.8244,
      "mean_motion_rev_day": 13.20772484
    },
    {
      "epoch": "2026-04-17T21:40:40.530432Z",
      "apogee_km": 1183.1731788734933,
      "perigee_km": 1180.3676972232333,
      "latitude_deg": 3.4163914043949793e-05,
      "longitude_deg": 115.26610154662248,
      "height_km": 1184.6065407068486,
      "semi_major_axis_km": 7559.907438048363,
      "eccentricity": 0.00018555,
      "inclination_deg": 87.914,
      "raan_deg": 286.4649,
      "arg_perigee_deg": 87.389,
      "mean_anomaly_deg": 272.7456,
      "mean_motion_rev_day": 13.20772582
    },
    {
      "epoch": "2026-04-18T17:40:39.674784Z",
      "apogee_km": 1183.1247119613636,
      "perigee_km": 1180.413729590592,
      "latitude_deg": 4.4185436939976e-05,
      "longitude_deg": 174.28180616312034,
      "height_km": 1184.615694606775,
      "semi_major_axis_km": 7559.906220775977,
      "eccentricity": 0.0001793,
      "inclination_deg": 87.9138,
      "raan_deg": 286.2984,
      "arg_perigee_deg": 87.7321,
      "mean_anomaly_deg": 272.4018,
      "mean_motion_rev_day": 13.20772901
    },
    {
      "epoch": "2026-04-19T17:18:49.792032Z",
      "apogee_km": 1183.164498127061,
      "perigee_km": 1180.386986185592,
      "latitude_deg": -6.646690676681883e-05,
      "longitude_deg": 178.57204411486208,
      "height_km": 1184.6322125144704,
      "semi_major_axis_km": 7559.912742156326,
      "eccentricity": 0.0001837,
      "inclination_deg": 87.9138,
      "raan_deg": 286.1015,
      "arg_perigee_deg": 88.2017,
      "mean_anomaly_deg": 271.9326,
      "mean_motion_rev_day": 13.20771192
    },
    {
      "epoch": "2026-04-20T04:13:22.129248Z",
      "apogee_km": 1183.163090228767,
      "perigee_km": 1180.3872416796712,
      "latitude_deg": 4.569170817748589e-05,
      "longitude_deg": 14.39849304614124,
      "height_km": 1184.6336886751271,
      "semi_major_axis_km": 7559.912165954219,
      "eccentricity": 0.00018359,
      "inclination_deg": 87.9138,
      "raan_deg": 286.0107,
      "arg_perigee_deg": 88.286,
      "mean_anomaly_deg": 271.8484,
      "mean_motion_rev_day": 13.20771343
    },
    {
      "epoch": "2026-04-21T20:13:20.885376Z",
      "apogee_km": 1183.1585575453873,
      "perigee_km": 1180.4097702102017,
      "latitude_deg": -5.017801642548548e-05,
      "longitude_deg": 132.42784090541954,
      "height_km": 1184.6442573535776,
      "semi_major_axis_km": 7559.921163877794,
      "eccentricity": 0.0001818,
      "inclination_deg": 87.9139,
      "raan_deg": 285.6776,
      "arg_perigee_deg": 88.3328,
      "mean_anomaly_deg": 271.8013,
      "mean_motion_rev_day": 13.20768985
    },
    {
      "epoch": "2026-04-22T19:51:31.023360Z",
      "apogee_km": 1183.1702341945884,
      "perigee_km": 1180.3942318522231,
      "latitude_deg": 4.2233491293067806e-05,
      "longitude_deg": 136.71789806671055,
      "height_km": 1184.6461591288698,
      "semi_major_axis_km": 7559.9192330234055,
      "eccentricity": 0.0001836,
      "inclination_deg": 87.9138,
      "raan_deg": 285.4806,
      "arg_perigee_deg": 88.5093,
      "mean_anomaly_deg": 271.6251,
      "mean_motion_rev_day": 13.20769491
    },
    {
      "epoch": "2026-04-23T10:24:14.151168Z",
      "apogee_km": 1183.1510173406805,
      "perigee_km": 1180.410395973664,
      "latitude_deg": 1.161104880736123e-05,
      "longitude_deg": -82.18025822287238,
      "height_km": 1184.641666298272,
      "semi_major_axis_km": 7559.917706657172,
      "eccentricity": 0.00018126,
      "inclination_deg": 87.9139,
      "raan_deg": 285.3595,
      "arg_perigee_deg": 88.364,
      "mean_anomaly_deg": 271.7701,
      "mean_motion_rev_day": 13.20769891
    },
    {
      "epoch": "2026-04-24T20:56:56.718816Z",
      "apogee_km": 1183.1381126284996,
      "perigee_km": 1180.4241020279696,
      "latitude_deg": -5.56231729033183e-05,
      "longitude_deg": 117.9345531331651,
      "height_km": 1184.5978795522124,
      "semi_major_axis_km": 7559.918107328234,
      "eccentricity": 0.0001795,
      "inclination_deg": 87.9142,
      "raan_deg": 285.0704,
      "arg_perigee_deg": 86.4786,
      "mean_anomaly_deg": 273.6552,
      "mean_motion_rev_day": 13.20769786
    }
  ]
}